{
  "type": "FeatureCollection",
  "features": [
    {
      "type": "Feature",
      "properties": {
        "norad_id": 29780,
        "name": "FENGYUN 1C DEB",
        "group": "fengyun-1c-debris",
        "lat": 48.68214285303591,
        "lon": 107.47763233504784,
        "alt_km": 790.6989546268151,
        "timestamp": "2025-12-21T09:37:22.925852+00:00",
        "meta_object_name": "FENGYUN 1C DEB",
        "meta_object_id": "1999-025BW",
        "meta_epoch": "2025-12-21T00:33:57.317184",
        "meta_mean_motion": 14.21091511,
        "meta_eccentricity": 0.0041407,
        "meta_inclination": 99.2786,
        "meta_ra_of_asc_node": 276.3641,
        "meta_arg_of_pericenter": 104.1118,
        "meta_mean_anomaly": 256.4664,
        "meta_ephemeris_type": 0,
        "meta_classification_type": "U",
        "meta_norad_cat_id": 29780,
        "meta_element_set_no": 999,
        "meta_rev_at_epoch": 97196,
        "meta_bstar": 0.0011286,
        "meta_mean_motion_dot": 2.425e-05,
        "meta_mean_motion_ddot": 0,
        "tle_line1": "1 29780U 99025BW  25355.02358006  .00002425  00000+0  11286-2 0  9997",
        "tle_line2": "2 29780  99.2786 276.3641 0041407 104.1118 256.4664 14.21091511971960"
      },
      "geometry": {
        "type": "Point",
        "coordinates": [
          107.47763233504784,
          48.68214285303591
        ]
      }
    },
    {
      "type": "Feature",
      "properties": {
        "norad_id": 29781,
        "name": "FENGYUN 1C DEB",
        "group": "fengyun-1c-debris",
        "lat": -51.39825981111042,
        "lon": 0.5105691369127845,
        "alt_km": 931.3969767371591,
        "timestamp": "2025-12-21T09:37:22.925867+00:00",
        "meta_object_name": "FENGYUN 1C DEB",
        "meta_object_id": "1999-025BX",
        "meta_epoch": "2025-12-20T12:15:58.161312",
        "meta_mean_motion": 14.0524448,
        "meta_eccentricity": 0.00722144,
        "meta_inclination": 98.81,
        "meta_ra_of_asc_node": 348.4447,
        "meta_arg_of_pericenter": 151.4241,
        "meta_mean_anomaly": 336.8344,
        "meta_ephemeris_type": 0,
        "meta_classification_type": "U",
        "meta_norad_cat_id": 29781,
        "meta_element_set_no": 999,
        "meta_rev_at_epoch": 96752,
        "meta_bstar": 0.00067979571,
        "meta_mean_motion_dot": 1.083e-05,
        "meta_mean_motion_ddot": 0,
        "tle_line1": "1 29781U 99025BX  25354.51108983  .00001083  00000+0  67980-3 0  9990",
        "tle_line2": "2 29781  98.8100 348.4447 0072214 151.4241 336.8344 14.05244480967525"
      },
      "geometry": {
        "type": "Point",
        "coordinates": [
          0.5105691369127845,
          -51.39825981111042
        ]
      }
    },
    {
      "type": "Feature",
      "properties": {
        "norad_id": 29782,
        "name": "FENGYUN 1C DEB",
        "group": "fengyun-1c-debris",
        "lat": -5.908782840264433,
        "lon": -131.8324306796182,
        "alt_km": 817.1268410780804,
        "timestamp": "2025-12-21T09:37:22.925879+00:00",
        "meta_object_name": "FENGYUN 1C DEB",
        "meta_object_id": "1999-025BY",
        "meta_epoch": "2025-12-21T02:04:44.861376",
        "meta_mean_motion": 14.11699064,
        "meta_eccentricity": 0.005575,
        "meta_inclination": 99.0997,
        "meta_ra_of_asc_node": 48.7993,
        "meta_arg_of_pericenter": 180.1597,
        "meta_mean_anomaly": 209.0568,
        "meta_ephemeris_type": 0,
        "meta_classification_type": "U",
        "meta_norad_cat_id": 29782,
        "meta_element_set_no": 999,
        "meta_rev_at_epoch": 96789,
        "meta_bstar": 0.0010626,
        "meta_mean_motion_dot": 1.917e-05,
        "meta_mean_motion_ddot": 0,
        "tle_line1": "1 29782U 99025BY  25355.08663034  .00001917  00000+0  10626-2 0  9997",
        "tle_line2": "2 29782  99.0997  48.7993 0055750 180.1597 209.0568 14.11699064967896"
      },
      "geometry": {
        "type": "Point",
        "coordinates": [
          -131.8324306796182,
          -5.908782840264433
        ]
      }
    },
    {
      "type": "Feature",
      "properties": {
        "norad_id": 29784,
        "name": "FENGYUN 1C DEB",
        "group": "fengyun-1c-debris",
        "lat": -26.520575064711835,
        "lon": 89.9362841631942,
        "alt_km": 777.2664316184255,
        "timestamp": "2025-12-21T09:37:22.925889+00:00",
        "meta_object_name": "FENGYUN 1C DEB",
        "meta_object_id": "1999-025CA",
        "meta_epoch": "2025-12-21T00:33:34.256160",
        "meta_mean_motion": 14.30603721,
        "meta_eccentricity": 0.005917,
        "meta_inclination": 98.9465,
        "meta_ra_of_asc_node": 274.0567,
        "meta_arg_of_pericenter": 272.9176,
        "meta_mean_anomaly": 150.6123,
        "meta_ephemeris_type": 0,
        "meta_classification_type": "U",
        "meta_norad_cat_id": 29784,
        "meta_element_set_no": 999,
        "meta_rev_at_epoch": 98478,
        "meta_bstar": 0.00033954,
        "meta_mean_motion_dot": 8.56e-06,
        "meta_mean_motion_ddot": 0,
        "tle_line1": "1 29784U 99025CA  25355.02331315  .00000856  00000+0  33954-3 0  9998",
        "tle_line2": "2 29784  98.9465 274.0567 0059170 272.9176 150.6123 14.30603721984781"
      },
      "geometry": {
        "type": "Point",
        "coordinates": [
          89.9362841631942,
          -26.520575064711835
        ]
      }
    },
    {
      "type": "Feature",
      "properties": {
        "norad_id": 29786,
        "name": "FENGYUN 1C DEB",
        "group": "fengyun-1c-debris",
        "lat": -15.844020644770032,
        "lon": -170.14629756484644,
        "alt_km": 859.3639059184479,
        "timestamp": "2025-12-21T09:37:22.925901+00:00",
        "meta_object_name": "FENGYUN 1C DEB",
        "meta_object_id": "1999-025CC",
        "meta_epoch": "2025-12-21T00:15:40.347360",
        "meta_mean_motion": 14.09089536,
        "meta_eccentricity": 0.0076851,
        "meta_inclination": 98.7349,
        "meta_ra_of_asc_node": 11.9763,
        "meta_arg_of_pericenter": 279.36,
        "meta_mean_anomaly": 99.7864,
        "meta_ephemeris_type": 0,
        "meta_classification_type": "U",
        "meta_norad_cat_id": 29786,
        "meta_element_set_no": 999,
        "meta_rev_at_epoch": 97277,
        "meta_bstar": 0.00010263,
        "meta_mean_motion_dot": 1.4e-06,
        "meta_mean_motion_ddot": 0,
        "tle_line1": "1 29786U 99025CC  25355.01088365  .00000140  00000+0  10263-3 0  9997",
        "tle_line2": "2 29786  98.7349  11.9763 0076851 279.3600  99.7864 14.09089536972775"
      },
      "geometry": {
        "type": "Point",
        "coordinates": [
          -170.14629756484644,
          -15.844020644770032
        ]
      }
    },
    {
      "type": "Feature",
      "properties": {
        "norad_id": 29788,
        "name": "FENGYUN 1C DEB",
        "group": "fengyun-1c-debris",
        "lat": -60.54822734651927,
        "lon": 82.93722862219721,
        "alt_km": 833.3734305205098,
        "timestamp": "2025-12-21T09:37:22.925911+00:00",
        "meta_object_name": "FENGYUN 1C DEB",
        "meta_object_id": "1999-025CE",
        "meta_epoch": "2025-12-21T05:10:24.229344",
        "meta_mean_motion": 14.26029942,
        "meta_eccentricity": 0.004316,
        "meta_inclination": 98.7837,
        "meta_ra_of_asc_node": 66.8597,
        "meta_arg_of_pericenter": 165.438,
        "meta_mean_anomaly": 261.2254,
        "meta_ephemeris_type": 0,
        "meta_classification_type": "U",
        "meta_norad_cat_id": 29788,
        "meta_element_set_no": 999,
        "meta_rev_at_epoch": 97476,
        "meta_bstar": 0.0010629,
        "meta_mean_motion_dot": 2.519e-05,
        "meta_mean_motion_ddot": 0,
        "tle_line1": "1 29788U 99025CE  25355.21555821  .00002519  00000+0  10629-2 0  9994",
        "tle_line2": "2 29788  98.7837  66.8597 0043160 165.4380 261.2254 14.26029942974764"
      },
      "geometry": {
        "type": "Point",
        "coordinates": [
          82.93722862219721,
          -60.54822734651927
        ]
      }
    },
    {
      "type": "Feature",
      "properties": {
        "norad_id": 29789,
        "name": "FENGYUN 1C DEB",
        "group": "fengyun-1c-debris",
        "lat": 12.354353805735258,
        "lon": 175.73908992810692,
        "alt_km": 1148.4113758010426,
        "timestamp": "2025-12-21T09:37:22.925921+00:00",
        "meta_object_name": "FENGYUN 1C DEB",
        "meta_object_id": "1999-025CF",
        "meta_epoch": "2025-12-20T18:15:53.076672",
        "meta_mean_motion": 13.54257877,
        "meta_eccentricity": 0.02983159,
        "meta_inclination": 99.4514,
        "meta_ra_of_asc_node": 177.2174,
        "meta_arg_of_pericenter": 258.5605,
        "meta_mean_anomaly": 232.7158,
        "meta_ephemeris_type": 0,
        "meta_classification_type": "U",
        "meta_norad_cat_id": 29789,
        "meta_element_set_no": 999,
        "meta_rev_at_epoch": 93096,
        "meta_bstar": 0.0010393518,
        "meta_mean_motion_dot": 8.95e-06,
        "meta_mean_motion_ddot": 0,
        "tle_line1": "1 29789U 99025CF  25354.76103098  .00000895  00000+0  10394-2 0  9993",
        "tle_line2": "2 29789  99.4514 177.2174 0298315 258.5605 232.7158 13.54257877930961"
      },
      "geometry": {
        "type": "Point",
        "coordinates": [
          175.73908992810692,
          12.354353805735258
        ]
      }
    }
  ]
}